STARLINK-2022           
1 47643U 21012Z   23309.14269398 -.00002628  00000+0 -15757-3 0  9996
2 47643  53.0550 292.3209 0001860  96.5963 263.5238 15.06401808150798
